[{"OBJECT_NAME":"ORBITER SN3","OBJECT_ID":"2023-084AE","EPOCH":"2026-03-09T23:12:21.976128","MEAN_MOTION":15.32943891,"ECCENTRICITY":0.00075889,"INCLINATION":97.61,"RA_OF_ASC_NODE":206.6768,"ARG_OF_PERICENTER":331.7947,"MEAN_ANOMALY":28.2883,"EPHEMERIS_TYPE":0,"CLASSIFICATION_TYPE":"U","NORAD_CAT_ID":56960,"ELEMENT_SET_NO":999,"REV_AT_EPOCH":15228,"BSTAR":0.00032835432,"MEAN_MOTION_DOT":0.00010378,"MEAN_MOTION_DDOT":0},{"OBJECT_NAME":"STARLINK-31380","OBJECT_ID":"2024-031Q","EPOCH":"2026-03-09T21:37:33.114144","MEAN_MOTION":15.3019278,"ECCENTRICITY":0.00010479,"INCLINATION":53.1595,"RA_OF_ASC_NODE":295.8448,"ARG_OF_PERICENTER":100.3993,"MEAN_ANOMALY":259.7126,"EPHEMERIS_TYPE":0,"CLASSIFICATION_TYPE":"U","NORAD_CAT_ID":58979,"ELEMENT_SET_NO":999,"REV_AT_EPOCH":11654,"BSTAR":8.7825199e-5,"MEAN_MOTION_DOT":2.242e-5,"MEAN_MOTION_DDOT":0}]
